STARLINK-5026           
1 57260U 23094AU  25244.23791778  .00001178  00000+0  10228-3 0  9991
2 57260  43.0048 326.5670 0001507 267.3170  92.7500 15.02534390119410
STARLINK-5485           
1 57261U 23094AV  25243.97174727  .00000997  00000+0  88861-4 0  9998
2 57261  43.0031 341.0193 0001273 269.4312  90.6385 15.02537314118580
STARLINK-5504           
1 57262U 23094AW  25244.24679889  .00001284  00000+0  11007-3 0  9996
2 57262  43.0035 326.6360 0001345 283.5112  76.5581 15.02545060118774
STARLINK-5509           
1 57263U 23094AX  25244.23654837  .00000810  00000+0  75064-4 0  9990
2 57263  43.0043 339.5641 0001113 274.3096  85.7620 15.02534400118627
STARLINK-5858           
1 57264U 23094AY  25243.96756470  .00000775  00000+0  72400-4 0  9997
2 57264  43.0042 327.9797 0001250 264.7423  95.3276 15.02540176118732
STARLINK-5890           
1 57265U 23094AZ  25244.29773493  .00000467  00000+0  49622-4 0  9997
2 57265  43.0046 326.1577 0001081 272.1425  87.9294 15.02533010118782
HULIANWANG JISHU SHIYAN*
1 57288U 23095A   25244.25817459  .00000063  00000+0  88752-4 0  9999
2 57288  86.4974 104.8382 0016102 276.8726  83.0585 13.39520068105073
HULIANWANG JISHU SHIYAN*
1 57289U 23095B   25244.32554975  .00000051  00000+0  67056-4 0  9990
2 57289  86.4975 104.8205 0014623 274.7578  85.1895 13.39515990105083
STARLINK-30198          
1 57290U 23096A   25244.16599492  .00003552  00000+0  27794-3 0  9991
2 57290  43.0013 173.3683 0000803 266.9026  93.1725 15.02524779119100
STARLINK-30239          
1 57291U 23096B   25244.16266370  .00000883  00000+0  80431-4 0  9990
2 57291  43.0027 173.3464 0001484 279.1799  80.8876 15.02534074119101
STARLINK-30210          
1 57292U 23096C   25243.95804538  .00090856  00000+0  43696-2 0  9990
2 57292  42.9952 162.5063 0017868 176.3884 183.7096 15.17655120119095
STARLINK-30235          
1 57294U 23096E   25244.21915913 -.00000954  00000+0 -55552-4 0  9990
2 57294  43.0036 172.9070 0001755 274.6426  85.4215 15.02531653119119
STARLINK-30238          
1 57296U 23096G   25244.11572570  .00096276  00000+0  45846-2 0  9992
2 57296  42.9953 161.1264 0017177 178.8336 181.2554 15.17979497119267
STARLINK-30234          
1 57297U 23096H   25244.25002315  .00201999  00000+0  48792-2 0  9996
2 57297  42.9919 134.1049 0031378 212.1135 107.7199 15.39188915  5835
STARLINK-30241          
1 57298U 23096J   25244.06683382  .00106276  00000+0  46856-2 0  9996
2 57298  42.9945 158.1701 0017987 185.5423 174.5229 15.20565073119273
STARLINK-30236          
1 57300U 23096L   25244.20583137  .00000289  00000+0  36478-4 0  9991
2 57300  43.0034 172.8017 0001165 274.5283  85.5427 15.02537668119152
STARLINK-30201          
1 57301U 23096M   25244.20250113  .00000091  00000+0  21780-4 0  9998
2 57301  43.0014 172.7815 0001174 271.1794  88.8914 15.02537927118217
STARLINK-30233          
1 57302U 23096N   25244.19916654  .00001252  00000+0  10773-3 0  9995
2 57302  43.0017 172.7347 0001052 262.0103  98.0620 15.02531269118219
STARLINK-30232          
1 57303U 23096P   25244.12391483  .00082607  00000+0  39701-2 0  9990
2 57303  42.9963 161.1874 0016918 182.1044 177.9736 15.17742155119106
STARLINK-30177          
1 57305U 23096R   25244.14052609  .00088964  00000+0  42154-2 0  9996
2 57305  42.9952 160.4436 0017325 179.3653 180.7220 15.18190418118355
STARLINK-30200          
1 57306U 23096S   25243.74910627  .00092072  00000+0  41296-2 0  9996
2 57306  42.9968 160.1137 0018007 180.0797 180.0052 15.20055433118327
STARLINK-30209          
1 57307U 23096T   25244.15630547  .00084186  00000+0  40200-2 0  9994
2 57307  42.9953 160.5486 0016573 182.9658 177.1094 15.17961756118352
STARLINK-30194          
1 57308U 23096U   25244.10510493  .10497201  87591-5  59210-2 0  9991
2 57308  42.9671 113.5131 0023838 256.3108 103.5122 16.17498791118881
STARLINK-30163          
1 57309U 23096V   25244.25002315  .00163874  00000+0  51155-2 0  9996
2 57309  42.9967 142.7590 0024731 198.5490  60.7596 15.31560412  5864
STARLINK-30184          
1 57310U 23096W   25244.12323985  .00000003  00000+0  15296-4 0  9995
2 57310  43.0017 147.1821 0000843 270.2417  89.8329 15.02539533118505
STARLINK-30175          
1 57311U 23096X   25244.16269742  .00113453  00000+0  54246-2 0  9990
2 57311  42.9953 160.6138 0016358 179.4589 180.6279 15.17755731118355
STARLINK-6290           
1 57328U 23099A   25244.23413854  .00000213  00000+0  30864-4 0  9995
2 57328  43.0038 198.7598 0001277 267.0700  92.9996 15.02538633118528
STARLINK-6138           
1 57329U 23099B   25244.15767596 -.00000596  00000+0 -29060-4 0  9994
2 57329  43.0029 199.0437 0000777 270.5284  89.5469 15.02530449117607
STARLINK-6212           
1 57330U 23099C   25244.23081110  .00001981  00000+0  16170-3 0  9990
2 57330  43.0030 198.7358 0001241 264.9939  95.0762 15.02526759117618
STARLINK-6234           
1 57331U 23099D   25244.22970085  .00000520  00000+0  53588-4 0  9991
2 57331  43.0023 198.7285 0001232 268.3094  91.7607 15.02537080117610
