OBJECT_NAME,OBJECT_ID,EPOCH,MEAN_MOTION,ECCENTRICITY,INCLINATION,RA_OF_ASC_NODE,ARG_OF_PERICENTER,MEAN_ANOMALY,EPHEMERIS_TYPE,CLASSIFICATION_TYPE,NORAD_CAT_ID,ELEMENT_SET_NO,REV_AT_EPOCH,BSTAR,MEAN_MOTION_DOT,MEAN_MOTION_DDOT
STARLINK-5026,2023-094AU,2025-09-01T05:42:36.096192,15.02534390,.00015071,43.0048,326.5670,267.3170,92.7500,0,U,57260,999,11941,.10227664E-3,.1178E-4,0
STARLINK-5485,2023-094AV,2025-08-31T23:19:18.964128,15.02537314,.00012738,43.0031,341.0193,269.4312,90.6385,0,U,57261,999,11858,.88861499E-4,.997E-5,0
STARLINK-5504,2023-094AW,2025-09-01T05:55:23.424096,15.02545060,.0001345,43.0035,326.6360,283.5112,76.5581,0,U,57262,999,11877,.11006708E-3,.1284E-4,0
STARLINK-5509,2023-094AX,2025-09-01T05:40:37.779168,15.02534400,.00011135,43.0043,339.5641,274.3096,85.7620,0,U,57263,999,11862,.75063529E-4,.81E-5,0
STARLINK-5858,2023-094AY,2025-08-31T23:13:17.590080,15.02540176,.00012504,43.0042,327.9797,264.7423,95.3276,0,U,57264,999,11873,.72399931E-4,.775E-5,0
STARLINK-5890,2023-094AZ,2025-09-01T07:08:44.297952,15.02533010,.00010817,43.0046,326.1577,272.1425,87.9294,0,U,57265,999,11878,.4962245E-4,.467E-5,0
HULIANWANG JISHU SHIYAN A,2023-095A,2025-09-01T06:11:46.284576,13.39520068,.00161025,86.4974,104.8382,276.8726,83.0585,0,U,57288,999,10507,.88752201E-4,.63E-6,0
HULIANWANG JISHU SHIYAN B,2023-095B,2025-09-01T07:48:47.498400,13.39515990,.00146237,86.4975,104.8205,274.7578,85.1895,0,U,57289,999,10508,.67055753E-4,.51E-6,0
STARLINK-30198,2023-096A,2025-09-01T03:59:01.961088,15.02524779,.00008035,43.0013,173.3683,266.9026,93.1725,0,U,57290,999,11910,.27794449E-3,.3552E-4,0
STARLINK-30239,2023-096B,2025-09-01T03:54:14.143680,15.02534074,.0001484,43.0027,173.3464,279.1799,80.8876,0,U,57291,999,11910,.80431413E-4,.883E-5,0
STARLINK-30210,2023-096C,2025-08-31T22:59:35.120832,15.17655120,.00178685,42.9952,162.5063,176.3884,183.7096,0,U,57292,999,11909,.43696205E-2,.90856E-3,0
STARLINK-30235,2023-096E,2025-09-01T05:15:35.348832,15.02531653,.00017552,43.0036,172.9070,274.6426,85.4215,0,U,57294,999,11911,-.55552305E-4,-.954E-5,0
STARLINK-30238,2023-096G,2025-09-01T02:46:38.700480,15.17979497,.0017177,42.9953,161.1264,178.8336,181.2554,0,U,57296,999,11926,.45845776E-2,.96276E-3,0
STARLINK-30234,2023-096H,2025-09-01T06:00:02.000160,15.39188915,.00313787,42.9919,134.1049,212.1135,107.7199,0,U,57297,999,583,.48791754E-2,.201999E-2,0
STARLINK-30241,2023-096J,2025-09-01T01:36:14.442048,15.20565073,.00179879,42.9945,158.1701,185.5423,174.5229,0,U,57298,999,11927,.46855723E-2,.106276E-2,0
STARLINK-30236,2023-096L,2025-09-01T04:56:23.830368,15.02537668,.00011659,43.0034,172.8017,274.5283,85.5427,0,U,57300,999,11915,.36478248E-4,.289E-5,0
STARLINK-30201,2023-096M,2025-09-01T04:51:36.097632,15.02537927,.00011745,43.0014,172.7815,271.1794,88.8914,0,U,57301,999,11821,.21780039E-4,.91E-6,0
STARLINK-30233,2023-096N,2025-09-01T04:46:47.989056,15.02531269,.0001052,43.0017,172.7347,262.0103,98.0620,0,U,57302,999,11821,.10773481E-3,.1252E-4,0
STARLINK-30232,2023-096P,2025-09-01T02:58:26.241312,15.17742155,.00169187,42.9963,161.1874,182.1044,177.9736,0,U,57303,999,11910,.39700525E-2,.82607E-3,0
STARLINK-30177,2023-096R,2025-09-01T03:22:21.454176,15.18190418,.00173254,42.9952,160.4436,179.3653,180.7220,0,U,57305,999,11835,.42154443E-2,.88964E-3,0
STARLINK-30200,2023-096S,2025-08-31T17:58:42.781728,15.20055433,.00180071,42.9968,160.1137,180.0797,180.0052,0,U,57306,999,11832,.41295709E-2,.92072E-3,0
STARLINK-30209,2023-096T,2025-09-01T03:45:04.792608,15.17961756,.00165737,42.9953,160.5486,182.9658,177.1094,0,U,57307,999,11835,.40199513E-2,.84186E-3,0
STARLINK-30194,2023-096U,2025-09-01T02:31:21.065952,16.17498791,.0023838,42.9671,113.5131,256.3108,103.5122,0,U,57308,999,11888,.5921E-2,.10497201E+0,.87591E-5
STARLINK-30163,2023-096V,2025-09-01T06:00:02.000160,15.31560412,.00247315,42.9967,142.7590,198.5490,60.7596,0,U,57309,999,586,.51155488E-2,.163874E-2,0
STARLINK-30184,2023-096W,2025-09-01T02:57:27.923040,15.02539533,.0000843,43.0017,147.1821,270.2417,89.8329,0,U,57310,999,11850,.15295573E-4,.3E-7,0
STARLINK-30175,2023-096X,2025-09-01T03:54:17.057088,15.17755731,.00163581,42.9953,160.6138,179.4589,180.6279,0,U,57311,999,11835,.54246229E-2,.113453E-2,0
STARLINK-6290,2023-099A,2025-09-01T05:37:09.569856,15.02538633,.00012772,43.0038,198.7598,267.0700,92.9996,0,U,57328,999,11852,.30863538E-4,.213E-5,0
STARLINK-6138,2023-099B,2025-09-01T03:47:03.202944,15.02530449,.00007771,43.0029,199.0437,270.5284,89.5469,0,U,57329,999,11760,-.29060398E-4,-.596E-5,0
STARLINK-6212,2023-099C,2025-09-01T05:32:22.079040,15.02526759,.0001241,43.0030,198.7358,264.9939,95.0762,0,U,57330,999,11761,.16170218E-3,.1981E-4,0
STARLINK-6234,2023-099D,2025-09-01T05:30:46.153440,15.02537080,.00012329,43.0023,198.7285,268.3094,91.7607,0,U,57331,999,11761,.53587924E-4,.52E-5,0
